LANDSAT 9               
1 49260U 21088A   23192.95204537  .00000407  00000+0  10046-3 0  9996
2 49260  98.2289 262.5449 0001179  99.2014 260.9318 14.57105357 94994
